{
"type": "FeatureCollection",
"name": "44463-33-38_vetor",
"features": [
{ "type": "Feature", "properties": { "ID": 1, "TIPO": "QUADRA", "AREA_M2": 7410.36 }, "geometry": { "type": "Polygon", "coordinates": [ [ [ 150.6855, 16.7005 ], [ 135.5725, 66.2305 ], [ 132.6515, 70.2945 ], [ 129.0955, 71.8185 ], [ 88.0745, 61.5315 ], [ 40.7035, 54.5465 ], [ 6.5405, 56.4515 ], [ 1.7145, 53.5305 ], [ 0.0635, 49.7205 ], [ 3.8735, 15.1765 ], [ 6.1595, 11.1125 ], [ 10.7315, 8.8265 ], [ 118.745, 8.255 ], [ 121.8565, 0.0635 ], [ 119.126, 8.255 ], [ 143.5735, 8.0645 ], [ 148.5265, 10.8585 ], [ 150.6855, 16.7005 ] ] ] } },
{ "type": "Feature", "properties": { "ID": 1, "TIPO": "LOTE", "AREA_M2": 305.51 }, "geometry": { "type": "Polygon", "coordinates": [ [ [ 119.126, 8.5725 ], [ 143.7005, 8.4455 ], [ 148.2725, 11.049 ], [ 150.3045, 17.0815 ], [ 149.6695, 18.8595 ], [ 119.253, 18.923 ], [ 119.126, 8.5725 ] ] ] } },
{ "type": "Feature", "properties": { "ID": 2, "TIPO": "LOTE", "AREA_M2": 171.24 }, "geometry": { "type": "Polygon", "coordinates": [ [ [ 119.3165, 25.273 ], [ 119.507, 19.3675 ], [ 149.606, 19.3675 ], [ 148.463, 23.0505 ], [ 146.8755, 23.368 ], [ 147.955, 23.622 ], [ 147.7645, 25.2095 ], [ 119.3165, 25.273 ] ] ] } },
{ "type": "Feature", "properties": { "ID": 3, "TIPO": "LOTE", "AREA_M2": 159.09 }, "geometry": { "type": "Polygon", "coordinates": [ [ [ 119.38, 25.781 ], [ 147.6375, 25.781 ], [ 145.7325, 31.5595 ], [ 119.507, 31.6865 ], [ 119.38, 25.781 ] ] ] } },
{ "type": "Feature", "properties": { "ID": 4, "TIPO": "LOTE", "AREA_M2": 127.24 }, "geometry": { "type": "Polygon", "coordinates": [ [ [ 113.284, 31.8135 ], [ 112.8395, 8.636 ], [ 118.4275, 8.509 ], [ 118.745, 8.763 ], [ 118.8085, 21.971 ], [ 117.856, 21.9075 ], [ 117.729, 21.3995 ], [ 116.967, 21.2725 ], [ 116.205, 21.3995 ], [ 116.0145, 22.098 ], [ 116.586, 22.606 ], [ 116.84, 24.1935 ], [ 118.8085, 24.003 ], [ 118.9355, 31.623 ], [ 113.284, 31.8135 ] ] ] } },
{ "type": "Feature", "properties": { "ID": 5, "TIPO": "LOTE", "AREA_M2": 133.58 }, "geometry": { "type": "Polygon", "coordinates": [ [ [ 106.807, 31.75 ], [ 106.4895, 8.636 ], [ 112.268, 8.5725 ], [ 112.5855, 31.6865 ], [ 106.807, 31.75 ] ] ] } },
{ "type": "Feature", "properties": { "ID": 6, "TIPO": "LOTE", "AREA_M2": 135.82 }, "geometry": { "type": "Polygon", "coordinates": [ [ [ 100.5205, 31.877 ], [ 100.076, 8.8265 ], [ 105.791, 8.5725 ], [ 106.1085, 8.763 ], [ 106.2355, 31.75 ], [ 100.5205, 31.877 ] ] ] } },
{ "type": "Feature", "properties": { "ID": 7, "TIPO": "LOTE", "AREA_M2": 132.67 }, "geometry": { "type": "Polygon", "coordinates": [ [ [ 94.107, 31.8135 ], [ 93.9165, 8.763 ], [ 99.6315, 8.636 ], [ 99.8855, 31.75 ], [ 94.107, 31.8135 ] ] ] } },
{ "type": "Feature", "properties": { "ID": 8, "TIPO": "LOTE", "AREA_M2": 132.35 }, "geometry": { "type": "Polygon", "coordinates": [ [ [ 87.884, 31.9405 ], [ 87.5665, 8.89 ], [ 93.345, 8.6995 ], [ 93.599, 31.6865 ], [ 87.884, 31.9405 ] ] ] } },
{ "type": "Feature", "properties": { "ID": 9, "TIPO": "LOTE", "AREA_M2": 131.41 }, "geometry": { "type": "Polygon", "coordinates": [ [ [ 81.661, 31.9405 ], [ 81.3435, 8.8265 ], [ 86.995, 8.6995 ], [ 87.376, 31.8135 ], [ 81.661, 31.9405 ] ] ] } },
{ "type": "Feature", "properties": { "ID": 10, "TIPO": "LOTE", "AREA_M2": 135.61 }, "geometry": { "type": "Polygon", "coordinates": [ [ [ 75.2475, 31.9405 ], [ 74.93, 8.89 ], [ 80.8355, 8.763 ], [ 81.0895, 31.877 ], [ 75.2475, 31.9405 ] ] ] } },
{ "type": "Feature", "properties": { "ID": 11, "TIPO": "LOTE", "AREA_M2": 130.22 }, "geometry": { "type": "Polygon", "coordinates": [ [ [ 71.3105, 32.004 ], [ 70.8025, 30.861 ], [ 69.723, 29.7815 ], [ 68.834, 29.5275 ], [ 68.6435, 8.9535 ], [ 74.422, 8.8265 ], [ 74.7395, 31.75 ], [ 71.3105, 32.004 ] ] ] } },
{ "type": "Feature", "properties": { "ID": 12, "TIPO": "LOTE", "AREA_M2": 128.18 }, "geometry": { "type": "Polygon", "coordinates": [ [ [ 62.738, 32.0675 ], [ 62.4205, 8.9535 ], [ 68.199, 8.8265 ], [ 68.3895, 29.464 ], [ 66.929, 30.0355 ], [ 65.786, 32.0675 ], [ 62.738, 32.0675 ] ] ] } },
{ "type": "Feature", "properties": { "ID": 13, "TIPO": "LOTE", "AREA_M2": 133.06 }, "geometry": { "type": "Polygon", "coordinates": [ [ [ 56.388, 32.0675 ], [ 56.0705, 9.144 ], [ 61.849, 8.9535 ], [ 62.1665, 31.75 ], [ 61.976, 32.0675 ], [ 56.388, 32.0675 ] ] ] } },
{ "type": "Feature", "properties": { "ID": 14, "TIPO": "LOTE", "AREA_M2": 133.04 }, "geometry": { "type": "Polygon", "coordinates": [ [ [ 50.038, 32.0675 ], [ 49.8475, 9.017 ], [ 55.5625, 8.9535 ], [ 55.88, 31.9405 ], [ 50.038, 32.0675 ] ] ] } },
{ "type": "Feature", "properties": { "ID": 15, "TIPO": "LOTE", "AREA_M2": 130.47 }, "geometry": { "type": "Polygon", "coordinates": [ [ [ 43.8785, 32.131 ], [ 43.6245, 8.9535 ], [ 49.276, 8.9535 ], [ 49.53, 31.9405 ], [ 43.8785, 32.131 ] ] ] } },
{ "type": "Feature", "properties": { "ID": 16, "TIPO": "LOTE", "AREA_M2": 133.41 }, "geometry": { "type": "Polygon", "coordinates": [ [ [ 37.5285, 32.131 ], [ 37.1475, 9.017 ], [ 42.9895, 8.9535 ], [ 43.2435, 32.004 ], [ 37.5285, 32.131 ] ] ] } },
{ "type": "Feature", "properties": { "ID": 17, "TIPO": "LOTE", "AREA_M2": 131.47 }, "geometry": { "type": "Polygon", "coordinates": [ [ [ 31.242, 32.1945 ], [ 30.861, 9.2075 ], [ 36.576, 8.9535 ], [ 36.957, 31.9405 ], [ 31.242, 32.1945 ] ] ] } },
{ "type": "Feature", "properties": { "ID": 18, "TIPO": "LOTE", "AREA_M2": 133.6 }, "geometry": { "type": "Polygon", "coordinates": [ [ [ 24.892, 32.1945 ], [ 24.5745, 9.144 ], [ 30.353, 8.9535 ], [ 30.6705, 32.131 ], [ 24.892, 32.1945 ] ] ] } },
{ "type": "Feature", "properties": { "ID": 19, "TIPO": "LOTE", "AREA_M2": 133.24 }, "geometry": { "type": "Polygon", "coordinates": [ [ [ 18.542, 32.1945 ], [ 18.288, 9.144 ], [ 24.003, 9.017 ], [ 24.384, 32.0675 ], [ 18.542, 32.1945 ] ] ] } },
{ "type": "Feature", "properties": { "ID": 20, "TIPO": "LOTE", "AREA_M2": 131.64 }, "geometry": { "type": "Polygon", "coordinates": [ [ [ 12.446, 32.3215 ], [ 12.0015, 9.2075 ], [ 17.78, 9.0805 ], [ 18.0975, 32.004 ], [ 12.446, 32.3215 ] ] ] } },
{ "type": "Feature", "properties": { "ID": 21, "TIPO": "LOTE", "AREA_M2": 171.15 }, "geometry": { "type": "Polygon", "coordinates": [ [ [ 2.286, 32.3215 ], [ 4.1275, 15.367 ], [ 6.2865, 11.4935 ], [ 10.541, 9.2075 ], [ 11.557, 9.0805 ], [ 11.684, 19.1135 ], [ 11.049, 19.7485 ], [ 11.176, 19.2405 ], [ 10.4775, 19.431 ], [ 10.4775, 20.955 ], [ 11.557, 21.2725 ], [ 10.6045, 21.717 ], [ 10.4775, 22.479 ], [ 10.922, 22.6695 ], [ 10.4775, 22.86 ], [ 10.4775, 23.495 ], [ 11.684, 23.749 ], [ 11.7475, 32.258 ], [ 2.286, 32.3215 ] ] ] } },
{ "type": "Feature", "properties": { "ID": 22, "TIPO": "LOTE", "AREA_M2": 144.85 }, "geometry": { "type": "Polygon", "coordinates": [ [ [ 119.38, 37.7825 ], [ 119.38, 32.1945 ], [ 145.6055, 32.131 ], [ 143.8275, 37.973 ], [ 119.38, 37.7825 ] ] ] } },
{ "type": "Feature", "properties": { "ID": 23, "TIPO": "LOTE", "AREA_M2": 135.01 }, "geometry": { "type": "Polygon", "coordinates": [ [ [ 119.4435, 44.323 ], [ 119.4435, 38.481 ], [ 143.7005, 38.481 ], [ 142.621, 42.1005 ], [ 140.97, 42.4815 ], [ 142.0495, 42.672 ], [ 141.859, 44.2595 ], [ 119.4435, 44.323 ] ] ] } },
{ "type": "Feature", "properties": { "ID": 24, "TIPO": "LOTE", "AREA_M2": 117.79 }, "geometry": { "type": "Polygon", "coordinates": [ [ [ 37.0205, 54.0385 ], [ 31.3055, 53.7845 ], [ 31.1785, 44.704 ], [ 32.4485, 44.323 ], [ 32.4485, 40.132 ], [ 31.75, 40.386 ], [ 31.115, 39.9415 ], [ 31.1785, 32.5755 ], [ 36.957, 32.7025 ], [ 37.0205, 54.0385 ] ] ] } },
{ "type": "Feature", "properties": { "ID": 25, "TIPO": "LOTE", "AREA_M2": 120.28 }, "geometry": { "type": "Polygon", "coordinates": [ [ [ 25.0825, 54.102 ], [ 24.9555, 43.561 ], [ 26.289, 43.4975 ], [ 26.3525, 42.799 ], [ 25.908, 42.4815 ], [ 25.781, 43.1165 ], [ 24.9555, 42.545 ], [ 24.9555, 41.148 ], [ 26.0985, 41.148 ], [ 26.3525, 40.259 ], [ 26.162, 39.9415 ], [ 25.5905, 40.386 ], [ 24.8285, 40.005 ], [ 24.8285, 32.766 ], [ 30.607, 32.5755 ], [ 30.7975, 53.7845 ], [ 25.0825, 54.102 ] ] ] } },
{ "type": "Feature", "properties": { "ID": 26, "TIPO": "LOTE", "AREA_M2": 122.32 }, "geometry": { "type": "Polygon", "coordinates": [ [ [ 41.4655, 54.356 ], [ 41.5925, 53.594 ], [ 41.275, 53.1495 ], [ 39.751, 53.4035 ], [ 39.0525, 52.959 ], [ 38.5445, 53.467 ], [ 38.6715, 53.848 ], [ 38.1635, 54.102 ], [ 38.1635, 53.086 ], [ 37.592, 52.832 ], [ 37.465, 32.5755 ], [ 43.307, 32.5755 ], [ 43.4975, 53.4035 ], [ 42.1005, 53.34 ], [ 42.2275, 54.102 ], [ 41.4655, 54.356 ] ] ] } },
{ "type": "Feature", "properties": { "ID": 27, "TIPO": "LOTE", "AREA_M2": 120.45 }, "geometry": { "type": "Polygon", "coordinates": [ [ [ 19.431, 54.6735 ], [ 19.05, 54.0385 ], [ 19.2405, 53.721 ], [ 18.669, 53.1495 ], [ 18.4785, 32.766 ], [ 24.257, 32.7025 ], [ 24.511, 52.7685 ], [ 23.8125, 53.213 ], [ 23.5585, 52.8955 ], [ 21.971, 53.1495 ], [ 21.717, 53.5305 ], [ 20.955, 53.2765 ], [ 20.574, 53.594 ], [ 20.6375, 54.102 ], [ 19.812, 53.4035 ], [ 20.2565, 54.483 ], [ 19.431, 54.6735 ] ] ] } },
{ "type": "Feature", "properties": { "ID": 28, "TIPO": "LOTE", "AREA_M2": 128.73 }, "geometry": { "type": "Polygon", "coordinates": [ [ [ 49.7205, 55.5625 ], [ 44.0055, 54.61 ], [ 43.815, 32.512 ], [ 49.53, 32.5755 ], [ 49.7205, 55.5625 ] ] ] } },
{ "type": "Feature", "properties": { "ID": 29, "TIPO": "LOTE", "AREA_M2": 131.28 }, "geometry": { "type": "Polygon", "coordinates": [ [ [ 12.6365, 55.753 ], [ 12.3825, 55.372 ], [ 12.2555, 32.766 ], [ 18.034, 32.7025 ], [ 18.2245, 54.864 ], [ 12.6365, 55.753 ] ] ] } },
{ "type": "Feature", "properties": { "ID": 30, "TIPO": "LOTE", "AREA_M2": 235.07 }, "geometry": { "type": "Polygon", "coordinates": [ [ [ 6.2865, 56.007 ], [ 1.8415, 53.086 ], [ 0.4445, 49.657 ], [ 2.159, 32.8295 ], [ 11.684, 32.7025 ], [ 12.0015, 54.229 ], [ 10.2235, 54.737 ], [ 10.3505, 56.007 ], [ 6.2865, 56.007 ] ] ] } },
{ "type": "Feature", "properties": { "ID": 31, "TIPO": "LOTE", "AREA_M2": 136.83 }, "geometry": { "type": "Polygon", "coordinates": [ [ [ 56.007, 56.515 ], [ 50.7365, 55.753 ], [ 50.165, 55.1815 ], [ 50.1015, 32.512 ], [ 55.9435, 32.766 ], [ 56.007, 56.515 ] ] ] } },
{ "type": "Feature", "properties": { "ID": 32, "TIPO": "LOTE", "AREA_M2": 141.33 }, "geometry": { "type": "Polygon", "coordinates": [ [ [ 62.357, 57.4675 ], [ 56.5785, 56.515 ], [ 56.3245, 32.5755 ], [ 56.642, 32.4485 ], [ 62.103, 32.5755 ], [ 62.357, 57.4675 ] ] ] } },
{ "type": "Feature", "properties": { "ID": 33, "TIPO": "LOTE", "AREA_M2": 141.59 }, "geometry": { "type": "Polygon", "coordinates": [ [ [ 68.58, 58.3565 ], [ 62.865, 57.4675 ], [ 62.6745, 32.4485 ], [ 65.405, 32.4485 ], [ 65.405, 33.9725 ], [ 66.3575, 33.655 ], [ 68.5165, 35.052 ], [ 68.58, 58.3565 ] ] ] } },
{ "type": "Feature", "properties": { "ID": 34, "TIPO": "LOTE", "AREA_M2": 147.01 }, "geometry": { "type": "Polygon", "coordinates": [ [ [ 74.93, 59.2455 ], [ 69.1515, 58.3565 ], [ 68.8975, 34.925 ], [ 70.8025, 33.528 ], [ 71.12, 32.4485 ], [ 72.771, 32.4485 ], [ 72.5805, 33.274 ], [ 73.025, 33.8455 ], [ 74.7395, 33.655 ], [ 74.93, 59.2455 ] ] ] } },
{ "type": "Feature", "properties": { "ID": 35, "TIPO": "LOTE", "AREA_M2": 160.3 }, "geometry": { "type": "Polygon", "coordinates": [ [ [ 81.28, 60.198 ], [ 75.438, 59.309 ], [ 75.184, 32.512 ], [ 81.0895, 32.385 ], [ 81.28, 60.198 ] ] ] } },
{ "type": "Feature", "properties": { "ID": 36, "TIPO": "LOTE", "AREA_M2": 158.07 }, "geometry": { "type": "Polygon", "coordinates": [ [ [ 87.5665, 61.214 ], [ 86.487, 60.96 ], [ 86.741, 60.1345 ], [ 86.36, 59.6265 ], [ 84.836, 59.4995 ], [ 84.201, 60.6425 ], [ 83.5025, 59.182 ], [ 83.5025, 60.325 ], [ 81.8515, 60.198 ], [ 81.661, 32.3215 ], [ 87.376, 32.5755 ], [ 87.5665, 61.214 ] ] ] } },
{ "type": "Feature", "properties": { "ID": 37, "TIPO": "LOTE", "AREA_M2": 167.8 }, "geometry": { "type": "Polygon", "coordinates": [ [ [ 93.853, 62.5475 ], [ 88.0745, 61.214 ], [ 87.884, 32.3215 ], [ 93.472, 32.3215 ], [ 93.853, 62.5475 ] ] ] } },
{ "type": "Feature", "properties": { "ID": 38, "TIPO": "LOTE", "AREA_M2": 177.17 }, "geometry": { "type": "Polygon", "coordinates": [ [ [ 98.425, 63.6905 ], [ 97.9805, 63.5 ], [ 98.044, 62.4205 ], [ 97.5995, 62.738 ], [ 97.028, 62.1665 ], [ 96.647, 62.9285 ], [ 96.8375, 62.357 ], [ 96.0755, 61.849 ], [ 95.377, 62.9285 ], [ 95.25, 61.595 ], [ 94.2975, 61.468 ], [ 94.107, 32.3215 ], [ 99.949, 32.3215 ], [ 100.203, 63.1825 ], [ 98.806, 62.8015 ], [ 98.425, 63.6905 ] ] ] } },
{ "type": "Feature", "properties": { "ID": 39, "TIPO": "LOTE", "AREA_M2": 188.34 }, "geometry": { "type": "Polygon", "coordinates": [ [ [ 106.553, 65.913 ], [ 100.6475, 64.262 ], [ 100.6475, 32.258 ], [ 106.2355, 32.3215 ], [ 106.553, 65.913 ] ] ] } },
{ "type": "Feature", "properties": { "ID": 40, "TIPO": "LOTE", "AREA_M2": 198.73 }, "geometry": { "type": "Polygon", "coordinates": [ [ [ 112.776, 67.437 ], [ 106.9975, 65.913 ], [ 106.807, 32.258 ], [ 112.5855, 32.258 ], [ 112.776, 67.437 ] ] ] } },
{ "type": "Feature", "properties": { "ID": 41, "TIPO": "LOTE", "AREA_M2": 210.69 }, "geometry": { "type": "Polygon", "coordinates": [ [ [ 119.1895, 69.088 ], [ 113.3475, 67.564 ], [ 113.0935, 32.1945 ], [ 118.9355, 32.258 ], [ 119.1895, 69.088 ] ] ] } },
{ "type": "Feature", "properties": { "ID": 42, "TIPO": "LOTE", "AREA_M2": 143.83 }, "geometry": { "type": "Polygon", "coordinates": [ [ [ 125.476, 70.6755 ], [ 119.6975, 69.1515 ], [ 119.5705, 44.831 ], [ 125.2855, 44.8945 ], [ 125.476, 70.6755 ] ] ] } },
{ "type": "Feature", "properties": { "ID": 43, "TIPO": "LOTE", "AREA_M2": 303.96 }, "geometry": { "type": "Polygon", "coordinates": [ [ [ 125.984, 70.8025 ], [ 125.6665, 45.085 ], [ 141.6685, 44.704 ], [ 135.001, 66.6115 ], [ 132.715, 69.7865 ], [ 129.286, 71.4375 ], [ 125.984, 70.8025 ] ] ] } }
]
}
